NORAD_CAT_ID,OBJECT_NAME,OBJECT_TYPE,EPOCH,MEAN_MOTION,ECCENTRICITY,INCLINATION,RA_OF_ASC_NODE,ARG_OF_PERICENTER,MEAN_ANOMALY,BSTAR,MEAN_MOTION_DOT,MEAN_MOTION_DDOT,TLE_LINE0,TLE_LINE1,TLE_LINE2,SEMIMAJOR_AXIS,PERIOD,APOGEE,PERIGEE,DECAYED
49421.0,STARLINK-3112,PAYLOAD,2023-02-22 17:00:25,15.08855959,0.0001169,53.2157,176.518,98.4991,261.6134,0.0015756,0.00024888,0.0,0 STARLINK-3112,1 49421U 21104P   23053.70863336  .00024888  00000-0  15756-2 0  9993,2 49421  53.2157 176.5180 0001169  98.4991 261.6134 15.08855959 71983,6917.832,95.437,540.505,538.888,0.0
49421.0,STARLINK-3112,PAYLOAD,2023-02-22 18:35:48,15.08862506,0.0001096,53.2156,176.2206,94.8631,265.2486,0.0019317,0.00030608,0.0,0 STARLINK-3112,1 49421U 21104P   23053.77487244  .00030608  00000-0  19317-2 0  9994,2 49421  53.2156 176.2206 0001096  94.8631 265.2486 15.08862506 70916,6917.812,95.436,540.435,538.918,0.0
49421.0,STARLINK-3112,PAYLOAD,2023-02-23 12:05:03,15.0885242,0.0001362,53.2149,172.9493,96.7616,263.3531,0.0020871,0.00033096,0.0,0 STARLINK-3112,1 49421U 21104P   23054.50351834  .00033096  00000-0  20871-2 0  9992,2 49421  53.2149 172.9493 0001362  96.7616 263.3531 15.08852420 72106,6917.842,95.437,540.65,538.765,0.0
49421.0,STARLINK-3112,PAYLOAD,2023-02-23 20:01:59,15.08859367,0.0001089,53.2144,171.4626,99.4152,260.6963,0.0015941,0.00025187,0.0,0 STARLINK-3112,1 49421U 21104P   23054.83471507  .00025187  00000-0  15941-2 0  9992,2 49421  53.2144 171.4626 0001089  99.4152 260.6963 15.08859367 72155,6917.821,95.436,540.44,538.933,0.0
49421.0,STARLINK-3112,PAYLOAD,2023-02-24 00:48:09,15.08831277,7.91e-05,53.2147,170.5706,108.5531,251.5548,0.00034913,5.272e-05,0.0,0 STARLINK-3112,1 49421U 21104P   23055.03343991  .00005272  00000-0  34913-3 0  9994,2 49421  53.2147 170.5706 0000791 108.5531 251.5548 15.08831277 72180,6917.907,95.438,540.319,539.225,0.0
49421.0,STARLINK-3112,PAYLOAD,2023-02-24 11:55:51,15.08840758,0.0001098,53.2147,168.4888,108.1044,252.0068,0.001426,0.0002248,0.0,0 STARLINK-3112,1 49421U 21104P   23055.49712240  .00022480  00000-0  14260-2 0  9993,2 49421  53.2147 168.4888 0001098 108.1044 252.0068 15.08840758 71178,6917.878,95.438,540.503,538.983,0.0
49421.0,STARLINK-3112,PAYLOAD,2023-02-24 16:42:00,15.08851971,0.0001189,53.2148,167.5966,101.9779,258.1346,0.0018448,0.00029204,0.0,0 STARLINK-3112,1 49421U 21104P   23055.69584151  .00029204  00000-0  18448-2 0  9996,2 49421  53.2148 167.5966 0001189 101.9779 258.1346 15.08851971 72281,6917.844,95.437,540.531,538.886,0.0
49421.0,STARLINK-3112,PAYLOAD,2023-02-25 07:00:29,15.08832886,0.0001806,53.2149,164.9211,85.1641,274.9558,0.00086894,0.00013566,0.0,0 STARLINK-3112,1 49421U 21104P   23056.29201223  .00013566  00000-0  86894-3 0  9994,2 49421  53.2149 164.9211 0001806  85.1641 274.9558 15.08832886 72378,6917.902,95.438,541.017,538.518,0.0
49421.0,STARLINK-3112,PAYLOAD,2023-02-25 13:22:02,15.08831195,0.0001657,53.215,163.7315,83.9973,276.1208,0.0010154,0.00015905,0.0,0 STARLINK-3112,1 49421U 21104P   23056.55697445  .00015905  00000-0  10154-2 0  9992,2 49421  53.2150 163.7315 0001657  83.9973 276.1208 15.08831195 71333,6917.907,95.438,540.919,538.626,0.0
49421.0,STARLINK-3112,PAYLOAD,2023-02-25 19:43:35,15.08846744,0.0001564,53.2146,162.5409,89.0722,271.045,0.0010631,0.00016675,0.0,0 STARLINK-3112,1 49421U 21104P   23056.82193293  .00016675  00000-0  10631-2 0  9999,2 49421  53.2146 162.5409 0001564  89.0722 271.0450 15.08846744 71378,6917.86,95.437,540.807,538.643,0.0
49421.0,STARLINK-3112,PAYLOAD,2023-02-26 00:29:44,15.08842201,0.0001794,53.215,161.6492,84.1225,275.9972,0.00084352,0.00013163,0.0,0 STARLINK-3112,1 49421U 21104P   23057.02065541  .00013163  00000-0  84352-3 0  9997,2 49421  53.2150 161.6492 0001794  84.1225 275.9972 15.08842201 72483,6917.874,95.437,540.98,538.498,0.0
49421.0,STARLINK-3112,PAYLOAD,2023-02-26 11:37:25,15.08873407,0.0001295,53.2146,159.5686,81.8452,278.2687,0.0015405,0.00024337,0.0,0 STARLINK-3112,1 49421U 21104P   23057.48432645  .00024337  00000-0  15405-2 0  9997,2 49421  53.2146 159.5686 0001295  81.8452 278.2687 15.08873407 71470,6917.778,95.435,540.539,538.747,0.0
49421.0,STARLINK-3112,PAYLOAD,2023-02-26 13:12:48,15.08876223,0.0001374,53.2143,159.27,86.4766,273.6384,0.0015166,0.00023955,0.0,0 STARLINK-3112,1 49421U 21104P   23057.55056465  .00023955  00000-0  15166-2 0  9996,2 49421  53.2143 159.2700 0001374  86.4766 273.6384 15.08876223 72561,6917.77,95.435,540.585,538.684,0.0
49421.0,STARLINK-3112,PAYLOAD,2023-02-27 16:14:21,15.08890893,0.0001389,53.2148,154.2147,124.2295,235.8829,0.0033062,0.00052798,0.0,0 STARLINK-3112,1 49421U 21104P   23058.67663855  .00052798  00000-0  33062-2 0  9999,2 49421  53.2148 154.2147 0001389 124.2295 235.8829 15.08890893 72732,6917.725,95.434,540.551,538.629,0.0
49421.0,STARLINK-3112,PAYLOAD,2023-02-27 21:00:31,15.08861959,0.0001246,53.2149,153.3187,101.7073,258.4059,0.00091387,0.00014295,0.0,0 STARLINK-3112,1 49421U 21104P   23058.87535916  .00014295  00000-0  91387-3 0  9992,2 49421  53.2149 153.3187 0001246 101.7073 258.4059 15.08861959 71683,6917.813,95.436,540.54,538.816,0.0
49421.0,STARLINK-3112,PAYLOAD,2023-02-28 12:54:23,15.08828335,0.0001452,53.2159,150.3445,80.9424,279.1733,0.00088877,0.00013881,0.0,0 STARLINK-3112,1 49421U 21104P   23059.53777161  .00013881  00000-0  88877-3 0  9996,2 49421  53.2159 150.3445 0001452  80.9424 279.1733 15.08828335 71786,6917.916,95.438,540.786,538.777,0.0
49421.0,STARLINK-3112,PAYLOAD,2023-02-28 17:40:32,15.08844823,0.0001918,53.2161,149.4499,117.3298,242.789,0.0012501,0.00019666,0.0,0 STARLINK-3112,1 49421U 21104P   23059.73648794  .00019666  00000-0  12501-2 0  9994,2 49421  53.2161 149.4499 0001918 117.3298 242.7890 15.08844823 71812,6917.866,95.437,541.057,538.404,0.0
49421.0,STARLINK-3112,PAYLOAD,2023-02-28 22:26:43,15.08813809,0.0002654,53.2164,148.5639,66.6824,293.4447,2.378e-05,9e-07,0.0,0 STARLINK-3112,1 49421U 21104P   23059.93522127  .00000090  00000-0  23780-4 0  9991,2 49421  53.2164 148.5639 0002654  66.6824 293.4447 15.08813809 72924,6917.96,95.439,541.661,537.989,0.0
49421.0,STARLINK-3112,PAYLOAD,2023-03-01 17:31:21,15.08825872,0.0001575,53.2164,144.9956,72.868,287.2485,0.00067614,0.00010485,0.0,0 STARLINK-3112,1 49421U 21104P   23060.73010982  .00010485  00000-0  67614-3 0  9994,2 49421  53.2164 144.9956 0001575  72.8680 287.2485 15.08825872 73046,6917.924,95.438,540.878,538.699,0.0
49421.0,STARLINK-3112,PAYLOAD,2023-03-02 15:46:44,15.08858519,0.0001553,53.2164,140.8312,57.5271,302.5871,-7.9423e-05,-1.553e-05,0.0,0 STARLINK-3112,1 49421U 21104P   23061.65745969 -.00001553  00000-0 -79423-4 0  9996,2 49421  53.2164 140.8312 0001553  57.5271 302.5871 15.08858519 72109,6917.824,95.436,540.763,538.614,0.0
49421.0,STARLINK-3112,PAYLOAD,2023-03-03 09:15:59,15.08848262,0.0001502,53.2146,137.5639,58.8304,301.2835,0.0024631,0.00039139,0.0,0 STARLINK-3112,1 49421U 21104P   23062.38610996  .00039139  00000-0  24631-2 0  9996,2 49421  53.2146 137.5639 0001502  58.8304 301.2835 15.08848262 73290,6917.855,95.437,540.759,538.681,0.0
49421.0,STARLINK-3112,PAYLOAD,2023-03-03 10:51:22,15.08861011,0.0001569,53.2151,137.2656,92.5401,267.5771,0.0028419,0.00045258,0.0,0 STARLINK-3112,1 49421U 21104P   23062.45234843  .00045258  00000-0  28419-2 0  9994,2 49421  53.2151 137.2656 0001569  92.5401 267.5771 15.08861011 72220,6917.816,95.436,540.767,538.596,0.0
49421.0,STARLINK-3112,PAYLOAD,2023-03-03 14:02:09,15.0887009,0.0001627,53.2143,136.6714,70.9773,289.1395,0.0034525,0.00055134,0.0,0 STARLINK-3112,1 49421U 21104P   23062.58482776  .00055134  00000-0  34525-2 0  9997,2 49421  53.2143 136.6714 0001627  70.9773 289.1395 15.08870090 72247,6917.788,95.436,540.779,538.528,0.0
49421.0,STARLINK-3112,PAYLOAD,2023-03-04 04:20:36,15.08883561,0.0001877,53.2134,133.996,88.4284,271.6923,0.0017934,0.00028404,0.0,0 STARLINK-3112,1 49421U 21104P   23063.18097846  .00028404  00000-0  17934-2 0  9999,2 49421  53.2134 133.9960 0001877  88.4284 271.6923 15.08883561 73418,6917.747,95.435,540.911,538.314,0.0
49421.0,STARLINK-3112,PAYLOAD,2023-03-04 10:42:08,15.0888818,0.0001157,53.2154,132.8065,90.7633,269.3492,0.002432,0.00038681,0.0,0 STARLINK-3112,1 49421U 21104P   23063.44593216  .00038681  00000-0  24320-2 0  9995,2 49421  53.2154 132.8065 0001157  90.7633 269.3492 15.08888180 72370,6917.733,95.435,540.399,538.798,0.0
49421.0,STARLINK-3112,PAYLOAD,2023-03-04 12:17:31,15.08888999,0.0001106,53.2153,132.5096,88.4729,271.639,0.0024136,0.00038386,0.0,0 STARLINK-3112,1 49421U 21104P   23063.51217061  .00038386  00000-0  24136-2 0  9991,2 49421  53.2153 132.5096 0001106  88.4729 271.6390 15.08888999 73466,6917.731,95.434,540.361,538.831,0.0
49421.0,STARLINK-3112,PAYLOAD,2023-03-04 21:49:50,15.0883215,7.51e-05,53.2159,130.7243,155.3158,204.787,-0.0010142,-0.00016388,0.0,0 STARLINK-3112,1 49421U 21104P   23063.90960958 -.00016388  00000-0 -10142-2 0  9996,2 49421  53.2159 130.7243 0000751 155.3158 204.7870 15.08832150 73526,6917.904,95.438,540.289,539.25,0.0
49421.0,STARLINK-3112,PAYLOAD,2023-03-05 21:40:37,15.08859943,6.62e-05,53.2163,126.2625,146.9022,213.2012,0.0022304,0.00035407,0.0,0 STARLINK-3112,1 49421U 21104P   23064.90321438  .00035407  00000-0  22304-2 0  9995,2 49421  53.2163 126.2625 0000662 146.9022 213.2012 15.08859943 73670,6917.819,95.436,540.142,539.226,0.0
49421.0,STARLINK-3112,PAYLOAD,2023-03-06 10:23:42,15.08869175,0.0001531,53.2156,123.8833,107.1519,252.9641,0.0013398,0.00021116,0.0,0 STARLINK-3112,1 49421U 21104P   23065.43313178  .00021116  00000-0  13398-2 0  9991,2 49421  53.2156 123.8833 0001531 107.1519 252.9641 15.08869175 73757,6917.791,95.436,540.715,538.597,0.0
49421.0,STARLINK-3112,PAYLOAD,2023-03-06 15:09:51,15.08882465,0.0001574,53.2155,122.9905,110.3217,249.7944,0.0014614,0.00023074,0.0,0 STARLINK-3112,1 49421U 21104P   23065.63184532  .00023074  00000-0  14614-2 0  9990,2 49421  53.2155 122.9905 0001574 110.3217 249.7944 15.08882465 72705,6917.751,95.435,540.704,538.527,0.0
